<?xml version="1.0" encoding="UTF-8"?>
<ndm xmlns:xsi="http://www.w3.org/2001/XMLSchema-instance" xsi:noNamespaceSchemaLocation="https://sanaregistry.org/r/ndmxml_unqualified/ndmxml-2.0.0-master-2.0.xsd">
<omm id="CCSDS_OMM_VERS" version="2.0">
<header><CREATION_DATE/><ORIGINATOR/></header><body><segment><metadata><OBJECT_NAME>ONEWEB-0492</OBJECT_NAME><OBJECT_ID>2022-138B</OBJECT_ID><CENTER_NAME>EARTH</CENTER_NAME><REF_FRAME>TEME</REF_FRAME><TIME_SYSTEM>UTC</TIME_SYSTEM><MEAN_ELEMENT_THEORY>SGP4</MEAN_ELEMENT_THEORY></metadata><data><meanElements><EPOCH>2025-03-07T10:21:37.755072</EPOCH><MEAN_MOTION>13.19725997</MEAN_MOTION><ECCENTRICITY>.0002044</ECCENTRICITY><INCLINATION>87.9196</INCLINATION><RA_OF_ASC_NODE>37.7405</RA_OF_ASC_NODE><ARG_OF_PERICENTER>77.6689</ARG_OF_PERICENTER><MEAN_ANOMALY>282.4673</MEAN_ANOMALY></meanElements><tleParameters><EPHEMERIS_TYPE>0</EPHEMERIS_TYPE><CLASSIFICATION_TYPE>U</CLASSIFICATION_TYPE><NORAD_CAT_ID>54114</NORAD_CAT_ID><ELEMENT_SET_NO>999</ELEMENT_SET_NO><REV_AT_EPOCH>11527</REV_AT_EPOCH><BSTAR>.52621E-4</BSTAR><MEAN_MOTION_DOT>.34E-6</MEAN_MOTION_DOT><MEAN_MOTION_DDOT>0</MEAN_MOTION_DDOT></tleParameters></data></segment></body></omm>
<omm id="CCSDS_OMM_VERS" version="2.0">
<header><CREATION_DATE/><ORIGINATOR/></header><body><segment><metadata><OBJECT_NAME>ONEWEB-0495</OBJECT_NAME><OBJECT_ID>2022-138C</OBJECT_ID><CENTER_NAME>EARTH</CENTER_NAME><REF_FRAME>TEME</REF_FRAME><TIME_SYSTEM>UTC</TIME_SYSTEM><MEAN_ELEMENT_THEORY>SGP4</MEAN_ELEMENT_THEORY></metadata><data><meanElements><EPOCH>2025-03-07T09:49:46.007328</EPOCH><MEAN_MOTION>13.19728087</MEAN_MOTION><ECCENTRICITY>.0002694</ECCENTRICITY><INCLINATION>87.9195</INCLINATION><RA_OF_ASC_NODE>37.7564</RA_OF_ASC_NODE><ARG_OF_PERICENTER>84.6955</ARG_OF_PERICENTER><MEAN_ANOMALY>275.4486</MEAN_ANOMALY></meanElements><tleParameters><EPHEMERIS_TYPE>0</EPHEMERIS_TYPE><CLASSIFICATION_TYPE>U</CLASSIFICATION_TYPE><NORAD_CAT_ID>54115</NORAD_CAT_ID><ELEMENT_SET_NO>999</ELEMENT_SET_NO><REV_AT_EPOCH>11525</REV_AT_EPOCH><BSTAR>.20622E-3</BSTAR><MEAN_MOTION_DOT>.96E-6</MEAN_MOTION_DOT><MEAN_MOTION_DDOT>0</MEAN_MOTION_DDOT></tleParameters></data></segment></body></omm>
<omm id="CCSDS_OMM_VERS" version="2.0">
<header><CREATION_DATE/><ORIGINATOR/></header><body><segment><metadata><OBJECT_NAME>ONEWEB-0497</OBJECT_NAME><OBJECT_ID>2022-138D</OBJECT_ID><CENTER_NAME>EARTH</CENTER_NAME><REF_FRAME>TEME</REF_FRAME><TIME_SYSTEM>UTC</TIME_SYSTEM><MEAN_ELEMENT_THEORY>SGP4</MEAN_ELEMENT_THEORY></metadata><data><meanElements><EPOCH>2025-03-07T10:07:57.560736</EPOCH><MEAN_MOTION>13.19723311</MEAN_MOTION><ECCENTRICITY>.0002041</ECCENTRICITY><INCLINATION>87.9192</INCLINATION><RA_OF_ASC_NODE>37.7305</RA_OF_ASC_NODE><ARG_OF_PERICENTER>82.9967</ARG_OF_PERICENTER><MEAN_ANOMALY>277.1398</MEAN_ANOMALY></meanElements><tleParameters><EPHEMERIS_TYPE>0</EPHEMERIS_TYPE><CLASSIFICATION_TYPE>U</CLASSIFICATION_TYPE><NORAD_CAT_ID>54116</NORAD_CAT_ID><ELEMENT_SET_NO>999</ELEMENT_SET_NO><REV_AT_EPOCH>11524</REV_AT_EPOCH><BSTAR>-.21515E-5</BSTAR><MEAN_MOTION_DOT>.12E-6</MEAN_MOTION_DOT><MEAN_MOTION_DDOT>0</MEAN_MOTION_DDOT></tleParameters></data></segment></body></omm>
<omm id="CCSDS_OMM_VERS" version="2.0">
<header><CREATION_DATE/><ORIGINATOR/></header><body><segment><metadata><OBJECT_NAME>ONEWEB-0499</OBJECT_NAME><OBJECT_ID>2022-138E</OBJECT_ID><CENTER_NAME>EARTH</CENTER_NAME><REF_FRAME>TEME</REF_FRAME><TIME_SYSTEM>UTC</TIME_SYSTEM><MEAN_ELEMENT_THEORY>SGP4</MEAN_ELEMENT_THEORY></metadata><data><meanElements><EPOCH>2025-03-07T22:27:11.868192</EPOCH><MEAN_MOTION>13.19724360</MEAN_MOTION><ECCENTRICITY>.0002071</ECCENTRICITY><INCLINATION>87.9196</INCLINATION><RA_OF_ASC_NODE>37.6414</RA_OF_ASC_NODE><ARG_OF_PERICENTER>94.7296</ARG_OF_PERICENTER><MEAN_ANOMALY>265.4073</MEAN_ANOMALY></meanElements><tleParameters><EPHEMERIS_TYPE>0</EPHEMERIS_TYPE><CLASSIFICATION_TYPE>U</CLASSIFICATION_TYPE><NORAD_CAT_ID>54117</NORAD_CAT_ID><ELEMENT_SET_NO>999</ELEMENT_SET_NO><REV_AT_EPOCH>11619</REV_AT_EPOCH><BSTAR>.17787E-3</BSTAR><MEAN_MOTION_DOT>.84E-6</MEAN_MOTION_DOT><MEAN_MOTION_DDOT>0</MEAN_MOTION_DDOT></tleParameters></data></segment></body></omm>
<omm id="CCSDS_OMM_VERS" version="2.0">
<header><CREATION_DATE/><ORIGINATOR/></header><body><segment><metadata><OBJECT_NAME>ONEWEB-0500</OBJECT_NAME><OBJECT_ID>2022-138F</OBJECT_ID><CENTER_NAME>EARTH</CENTER_NAME><REF_FRAME>TEME</REF_FRAME><TIME_SYSTEM>UTC</TIME_SYSTEM><MEAN_ELEMENT_THEORY>SGP4</MEAN_ELEMENT_THEORY></metadata><data><meanElements><EPOCH>2025-03-07T09:47:30.747264</EPOCH><MEAN_MOTION>13.19724706</MEAN_MOTION><ECCENTRICITY>.0001935</ECCENTRICITY><INCLINATION>87.9192</INCLINATION><RA_OF_ASC_NODE>37.7343</RA_OF_ASC_NODE><ARG_OF_PERICENTER>81.9217</ARG_OF_PERICENTER><MEAN_ANOMALY>278.2135</MEAN_ANOMALY></meanElements><tleParameters><EPHEMERIS_TYPE>0</EPHEMERIS_TYPE><CLASSIFICATION_TYPE>U</CLASSIFICATION_TYPE><NORAD_CAT_ID>54118</NORAD_CAT_ID><ELEMENT_SET_NO>999</ELEMENT_SET_NO><REV_AT_EPOCH>11526</REV_AT_EPOCH><BSTAR>.32135E-3</BSTAR><MEAN_MOTION_DOT>.142E-5</MEAN_MOTION_DOT><MEAN_MOTION_DDOT>0</MEAN_MOTION_DDOT></tleParameters></data></segment></body></omm>
<omm id="CCSDS_OMM_VERS" version="2.0">
<header><CREATION_DATE/><ORIGINATOR/></header><body><segment><metadata><OBJECT_NAME>ONEWEB-0501</OBJECT_NAME><OBJECT_ID>2022-138G</OBJECT_ID><CENTER_NAME>EARTH</CENTER_NAME><REF_FRAME>TEME</REF_FRAME><TIME_SYSTEM>UTC</TIME_SYSTEM><MEAN_ELEMENT_THEORY>SGP4</MEAN_ELEMENT_THEORY></metadata><data><meanElements><EPOCH>2025-03-07T10:30:43.870464</EPOCH><MEAN_MOTION>13.19725662</MEAN_MOTION><ECCENTRICITY>.0002402</ECCENTRICITY><INCLINATION>87.9190</INCLINATION><RA_OF_ASC_NODE>37.7231</RA_OF_ASC_NODE><ARG_OF_PERICENTER>86.7887</ARG_OF_PERICENTER><MEAN_ANOMALY>273.3520</MEAN_ANOMALY></meanElements><tleParameters><EPHEMERIS_TYPE>0</EPHEMERIS_TYPE><CLASSIFICATION_TYPE>U</CLASSIFICATION_TYPE><NORAD_CAT_ID>54119</NORAD_CAT_ID><ELEMENT_SET_NO>999</ELEMENT_SET_NO><REV_AT_EPOCH>11524</REV_AT_EPOCH><BSTAR>-.11013E-3</BSTAR><MEAN_MOTION_DOT>-.31E-6</MEAN_MOTION_DOT><MEAN_MOTION_DDOT>0</MEAN_MOTION_DDOT></tleParameters></data></segment></body></omm>
<omm id="CCSDS_OMM_VERS" version="2.0">
<header><CREATION_DATE/><ORIGINATOR/></header><body><segment><metadata><OBJECT_NAME>ONEWEB-0502</OBJECT_NAME><OBJECT_ID>2022-138H</OBJECT_ID><CENTER_NAME>EARTH</CENTER_NAME><REF_FRAME>TEME</REF_FRAME><TIME_SYSTEM>UTC</TIME_SYSTEM><MEAN_ELEMENT_THEORY>SGP4</MEAN_ELEMENT_THEORY></metadata><data><meanElements><EPOCH>2025-03-07T21:05:18.944736</EPOCH><MEAN_MOTION>13.19725402</MEAN_MOTION><ECCENTRICITY>.0002191</ECCENTRICITY><INCLINATION>87.9190</INCLINATION><RA_OF_ASC_NODE>37.6210</RA_OF_ASC_NODE><ARG_OF_PERICENTER>89.1472</ARG_OF_PERICENTER><MEAN_ANOMALY>270.9912</MEAN_ANOMALY></meanElements><tleParameters><EPHEMERIS_TYPE>0</EPHEMERIS_TYPE><CLASSIFICATION_TYPE>U</CLASSIFICATION_TYPE><NORAD_CAT_ID>54120</NORAD_CAT_ID><ELEMENT_SET_NO>999</ELEMENT_SET_NO><REV_AT_EPOCH>11619</REV_AT_EPOCH><BSTAR>.44426E-4</BSTAR><MEAN_MOTION_DOT>.31E-6</MEAN_MOTION_DOT><MEAN_MOTION_DDOT>0</MEAN_MOTION_DDOT></tleParameters></data></segment></body></omm>
<omm id="CCSDS_OMM_VERS" version="2.0">
<header><CREATION_DATE/><ORIGINATOR/></header><body><segment><metadata><OBJECT_NAME>ONEWEB-0503</OBJECT_NAME><OBJECT_ID>2022-138J</OBJECT_ID><CENTER_NAME>EARTH</CENTER_NAME><REF_FRAME>TEME</REF_FRAME><TIME_SYSTEM>UTC</TIME_SYSTEM><MEAN_ELEMENT_THEORY>SGP4</MEAN_ELEMENT_THEORY></metadata><data><meanElements><EPOCH>2025-03-07T09:54:20.214144</EPOCH><MEAN_MOTION>13.19725765</MEAN_MOTION><ECCENTRICITY>.0001799</ECCENTRICITY><INCLINATION>87.9189</INCLINATION><RA_OF_ASC_NODE>37.7191</RA_OF_ASC_NODE><ARG_OF_PERICENTER>93.8237</ARG_OF_PERICENTER><MEAN_ANOMALY>266.3101</MEAN_ANOMALY></meanElements><tleParameters><EPHEMERIS_TYPE>0</EPHEMERIS_TYPE><CLASSIFICATION_TYPE>U</CLASSIFICATION_TYPE><NORAD_CAT_ID>54121</NORAD_CAT_ID><ELEMENT_SET_NO>999</ELEMENT_SET_NO><REV_AT_EPOCH>11525</REV_AT_EPOCH><BSTAR>.20394E-3</BSTAR><MEAN_MOTION_DOT>.95E-6</MEAN_MOTION_DOT><MEAN_MOTION_DDOT>0</MEAN_MOTION_DDOT></tleParameters></data></segment></body></omm>

</ndm>
