ONEWEB-0492             
1 54114U 22138B   25066.43168698  .00000034  00000+0  52621-4 0  9991
2 54114  87.9196  37.7405 0002044  77.6689 282.4673 13.19725997115277
ONEWEB-0495             
1 54115U 22138C   25066.40956027  .00000096  00000+0  20622-3 0  9993
2 54115  87.9195  37.7564 0002694  84.6955 275.4486 13.19728087115253
ONEWEB-0497             
1 54116U 22138D   25066.42219399  .00000012  00000+0 -21515-5 0  9993
2 54116  87.9192  37.7305 0002041  82.9967 277.1398 13.19723311115249
ONEWEB-0499             
1 54117U 22138E   25066.93555403  .00000084  00000+0  17787-3 0  9991
2 54117  87.9196  37.6414 0002071  94.7296 265.4073 13.19724360116193
ONEWEB-0500             
1 54118U 22138F   25066.40799476  .00000142  00000+0  32135-3 0  9993
2 54118  87.9192  37.7343 0001935  81.9217 278.2135 13.19724706115263
ONEWEB-0501             
1 54119U 22138G   25066.43800776 -.00000031  00000+0 -11013-3 0  9994
2 54119  87.9190  37.7231 0002402  86.7887 273.3520 13.19725662115248
ONEWEB-0502             
1 54120U 22138H   25066.87869149  .00000031  00000+0  44426-4 0  9996
2 54120  87.9190  37.6210 0002191  89.1472 270.9912 13.19725402116193
ONEWEB-0503             
1 54121U 22138J   25066.41273396  .00000095  00000+0  20394-3 0  9997
2 54121  87.9189  37.7191 0001799  93.8237 266.3101 13.19725765115252
